[{"OBJECT_NAME":"STARLINK-30820","OBJECT_ID":"2023-167R","EPOCH":"2026-03-09T12:32:16.991232","MEAN_MOTION":15.27569171,"ECCENTRICITY":3.51e-5,"INCLINATION":42.9985,"RA_OF_ASC_NODE":143.9823,"ARG_OF_PERICENTER":241.3107,"MEAN_ANOMALY":118.7709,"EPHEMERIS_TYPE":0,"CLASSIFICATION_TYPE":"U","NORAD_CAT_ID":58190,"ELEMENT_SET_NO":999,"REV_AT_EPOCH":13096,"BSTAR":-7.7075e-6,"MEAN_MOTION_DOT":-4.74e-6,"MEAN_MOTION_DDOT":0},{"OBJECT_NAME":"FLOCK 4G-21","OBJECT_ID":"2025-009AU","EPOCH":"2026-03-09T04:40:37.351200","MEAN_MOTION":15.28381075,"ECCENTRICITY":4.655e-5,"INCLINATION":97.4032,"RA_OF_ASC_NODE":151.1274,"ARG_OF_PERICENTER":329.5782,"MEAN_ANOMALY":30.5431,"EPHEMERIS_TYPE":0,"CLASSIFICATION_TYPE":"U","NORAD_CAT_ID":62651,"ELEMENT_SET_NO":999,"REV_AT_EPOCH":6367,"BSTAR":0.00049618643,"MEAN_MOTION_DOT":0.00013648,"MEAN_MOTION_DDOT":0}]
